SUOMI NPP               
1 37849U 11061A   26132.88595361  .00000039  00000+0  39689-4 0  9999
2 37849  98.7941  74.0067 0002835  74.5576 285.5913 14.19509655753437
YAOGAN-12               
1 37875U 11066B   26132.86451709  .00003570  00000+0  14081-3 0  9999
2 37875  97.1179 173.1006 0009655   2.8590 357.2703 15.26128491806654
BEIDOU-2 M4             
1 38251U 12018B   26128.92300840 -.00000036  00000+0  00000+0 0  9994
2 38251  55.6931 305.4151 0010883 282.3733  77.4996  1.86229854 95211
ARIRANG-3 (KOMPSAT-3)   
1 38338U 12025B   26132.99582795  .00000250  00000+0  58936-4 0  9994
2 38338  98.1156  91.0691 0004433 213.2215 146.8709 14.62174288746200
METOP-B                 
1 38771U 12049A   26132.92344122  .00000063  00000+0  48766-4 0  9996
2 38771  98.6528 185.1216 0003527  92.3736 267.7846 14.21422593708252
SJ-9A                   
1 38860U 12056A   26132.93430109  .00000771  00000+0  95143-4 0  9992
2 38860  97.6689 106.1687 0026046  16.9963 343.2119 14.85395873694356
COSMOS 2484 (RODNIK-S 6)
1 39059U 13001C   26132.97033905  .00000003  00000+0 -52875-4 0  9995
2 39059  82.5016 243.7850 0027536 110.7030 249.7005 12.42938177604184
SARAL                   
1 39086U 13009A   26132.91596851  .00000048  00000+0  33580-4 0  9991
2 39086  98.5562 319.9298 0002620  52.7667 307.3756 14.32847069690557
STRAND-1                
1 39090U 13009E   26132.89675701  .00000175  00000+0  73286-4 0  9993
2 39090  98.3916 314.0015 0008195 344.7153  15.3785 14.37141728691994
BRITE-AUSTRIA           
1 39091U 13009F   26132.75518091  .00000105  00000+0  50465-4 0  9994
2 39091  98.3988 313.0696 0009956 353.0746   7.0301 14.36527478691963
GAOFEN-1                
1 39150U 13018A   26132.95953212  .00000280  00000+0  47330-4 0  9991
2 39150  97.9102 205.7403 0017616  24.2397 335.9638 14.76535353703040
NEE-01 PEGASO           
1 39151U 13018B   26132.89223926  .00001564  00000+0  15433-3 0  9991
2 39151  98.1175 275.8909 0011198 281.4484  78.5477 14.93484271705433
PROBA-V                 
1 39159U 13021A   26132.90638776  .00000040  00000+0  35562-4 0  9992
2 39159  98.3570 113.2590 0003191 224.7760 135.3162 14.23589267676090
GONETS-M 5              
1 39249U 13048A   26132.93780796 -.00000084  00000+0 -67567-3 0  9993
2 39249  82.4860   5.3602 0015821 292.5180  67.4225 12.42890478574509
GONETS-M 7              
1 39251U 13048C   26132.98190557 -.00000003  00000+0 -88627-4 0  9993
2 39251  82.4928   8.2362 0016648 293.6496  66.2835 12.42913509574462
FENGYUN 3C              
1 39260U 13052A   26132.98961566  .00000041  00000+0  41980-4 0  9995
2 39260  98.4963 108.4854 0015638 122.1076 238.1619 14.15746568653587
CASSIOPE                
1 39265U 13055A   26132.89702602  .00021547 -62337-6  24544-3 0  9996
2 39265  80.9125 109.4768 0301148 180.7001 179.3859 15.22576089662293
APRIZESAT 7             
1 39416U 13066A   26132.86616637  .00000815  00000+0  86337-4 0  9990
2 39416  97.7688  86.6009 0035078 330.8226  29.1032 14.91481029675965
ZACUBE-1 (TSHEPISOSAT)  
1 39417U 13066B   26132.87677755  .00003027  00000+0  23831-3 0  9997
2 39417  97.8118  95.0221 0041873  11.9961 348.2250 15.00908497675431
APRIZESAT 8             
1 39425U 13066K   26132.82845024  .00000713  00000+0  83168-4 0  9996
2 39425  97.8202  80.7970 0047069  43.7081 316.7847 14.87573791674413
