OBJECT_NAME,OBJECT_ID,EPOCH,MEAN_MOTION,ECCENTRICITY,INCLINATION,RA_OF_ASC_NODE,ARG_OF_PERICENTER,MEAN_ANOMALY,EPHEMERIS_TYPE,CLASSIFICATION_TYPE,NORAD_CAT_ID,ELEMENT_SET_NO,REV_AT_EPOCH,BSTAR,MEAN_MOTION_DOT,MEAN_MOTION_DDOT
SUOMI NPP,2011-061A,2026-05-12T21:15:46.391904,14.19509655,.00028354,98.7941,74.0067,74.5576,285.5913,0,U,37849,999,75343,.39689415E-4,.39E-6,0
YAOGAN-12,2011-066B,2026-05-12T20:44:54.276576,15.26128491,.00096555,97.1179,173.1006,2.8590,357.2703,0,U,37875,999,80665,.14080549E-3,.357E-4,0
BEIDOU-2 M4,2012-018B,2026-05-08T22:09:07.925760,1.86229854,.00108839,55.6931,305.4151,282.3733,77.4996,0,U,38251,999,9521,0,-.36E-6,0
ARIRANG-3 (KOMPSAT-3),2012-025B,2026-05-12T23:53:59.534880,14.62174288,.0004433,98.1156,91.0691,213.2215,146.8709,0,U,38338,999,74620,.58935947E-4,.25E-5,0
METOP-B,2012-049A,2026-05-12T22:09:45.321408,14.21422593,.00035277,98.6528,185.1216,92.3736,267.7846,0,U,38771,999,70825,.48765503E-4,.63E-6,0
SJ-9A,2012-056A,2026-05-12T22:25:23.614176,14.85395873,.00260465,97.6689,106.1687,16.9963,343.2119,0,U,38860,999,69435,.95142915E-4,.771E-5,0
COSMOS 2484 (RODNIK-S 6),2013-001C,2026-05-12T23:17:17.293920,12.42938177,.00275365,82.5016,243.7850,110.7030,249.7005,0,U,39059,999,60418,-.52875291E-4,.3E-7,0
SARAL,2013-009A,2026-05-12T21:58:59.679264,14.32847069,.00026204,98.5562,319.9298,52.7667,307.3756,0,U,39086,999,69055,.33580202E-4,.48E-6,0
STRAND-1,2013-009E,2026-05-12T21:31:19.805664,14.37141728,.0008195,98.3916,314.0015,344.7153,15.3785,0,U,39090,999,69199,.7328612E-4,.175E-5,0
BRITE-AUSTRIA,2013-009F,2026-05-12T18:07:27.630624,14.36527478,.0009956,98.3988,313.0696,353.0746,7.0301,0,U,39091,999,69196,.50465307E-4,.105E-5,0
GAOFEN-1,2013-018A,2026-05-12T23:01:43.575168,14.76535353,.00176166,97.9102,205.7403,24.2397,335.9638,0,U,39150,999,70304,.47329967E-4,.28E-5,0
NEE-01 PEGASO,2013-018B,2026-05-12T21:24:49.472064,14.93484271,.00111987,98.1175,275.8909,281.4484,78.5477,0,U,39151,999,70543,.15433401E-3,.1564E-4,0
PROBA-V,2013-021A,2026-05-12T21:45:11.902464,14.23589267,.00031913,98.3570,113.2590,224.7760,135.3162,0,U,39159,999,67609,.35562313E-4,.4E-6,0
GONETS-M 5,2013-048A,2026-05-12T22:30:26.607744,12.42890478,.0015821,82.4860,5.3602,292.5180,67.4225,0,U,39249,999,57450,-.67566816E-3,-.84E-6,0
GONETS-M 7,2013-048C,2026-05-12T23:33:56.641248,12.42913509,.00166484,82.4928,8.2362,293.6496,66.2835,0,U,39251,999,57446,-.88626659E-4,-.3E-7,0
FENGYUN 3C,2013-052A,2026-05-12T23:45:02.793024,14.15746568,.0015638,98.4963,108.4854,122.1076,238.1619,0,U,39260,999,65358,.41980372E-4,.41E-6,0
CASSIOPE,2013-055A,2026-05-12T21:31:43.048128,15.22576089,.03011486,80.9125,109.4768,180.7001,179.3859,0,U,39265,999,66229,.24544246E-3,.21547E-3,-.623369E-6
APRIZESAT 7,2013-066A,2026-05-12T20:47:16.774368,14.91481029,.00350786,97.7688,86.6009,330.8226,29.1032,0,U,39416,999,67596,.86337255E-4,.815E-5,0
ZACUBE-1 (TSHEPISOSAT),2013-066B,2026-05-12T21:02:33.580320,15.00908497,.0041873,97.8118,95.0221,11.9961,348.2250,0,U,39417,999,67543,.23830663E-3,.3027E-4,0
APRIZESAT 8,2013-066K,2026-05-12T19:52:58.100736,14.87573791,.0047069,97.8202,80.7970,43.7081,316.7847,0,U,39425,999,67441,.83168164E-4,.713E-5,0
